{"type": "FeatureCollection", "features": [ {"type": "Feature", "properties": {"norad_id": 38197, "name": "COSMOS 2251 DEB", "group": "cosmos-2251-debris", "lat": -56.65363995683191, "lon": -15.413254763030572, "alt_km": 598.6348972413716, "timestamp": "2025-12-05T20:43:02.451600+00:00", "meta": {"OBJECT_NAME": "COSMOS 2251 DEB", "OBJECT_ID": "1993-036BSM", "EPOCH": "2025-12-03T10:19:00.710112", "MEAN_MOTION": 14.73077907, "ECCENTRICITY": 0.01286379, "INCLINATION": 73.9396, "RA_OF_ASC_NODE": 15.3185, "ARG_OF_PERICENTER": 255.0006, "MEAN_ANOMALY": 103.6899, "EPHEMERIS_TYPE": 0, "CLASSIFICATION_TYPE": "U", "NORAD_CAT_ID": 38197, "ELEMENT_SET_NO": 999, "REV_AT_EPOCH": 85618, "BSTAR": 0.0059536549, "MEAN_MOTION_DOT": 0.00043936, "MEAN_MOTION_DDOT": 0}, "tle": {"line1": "1 38197U 93036BSM 25337.42986933  .00043936  00000+0  59537-2 0  9998", "line2": "2 38197  73.9396  15.3185 0128637 255.0006 103.6899 14.73077907856184"}}, "geometry": {"type": "Point", "coordinates": [-15.413254763030572, -56.65363995683191]}}, {"type": "Feature", "properties": {"norad_id": 38199, "name": "COSMOS 2251 DEB", "group": "cosmos-2251-debris", "lat": -70.49645351339116, "lon": -52.17834485940035, "alt_km": 1075.2780728294265, "timestamp": "2025-12-05T20:43:02.451610+00:00", "meta": {"OBJECT_NAME": "COSMOS 2251 DEB", "OBJECT_ID": "1993-036BSP", "EPOCH": "2025-12-04T22:19:26.548896", "MEAN_MOTION": 13.64780719, "ECCENTRICITY": 0.0369323, "INCLINATION": 73.9557, "RA_OF_ASC_NODE": 75.019, "ARG_OF_PERICENTER": 3.0828, "MEAN_ANOMALY": 357.2436, "EPHEMERIS_TYPE": 0, "CLASSIFICATION_TYPE": "U", "NORAD_CAT_ID": 38199, "ELEMENT_SET_NO": 999, "REV_AT_EPOCH": 60915, "BSTAR": 0.0007297, "MEAN_MOTION_DOT": 9.14e-06, "MEAN_MOTION_DDOT": 0}, "tle": {"line1": "1 38199U 93036BSP 25338.93016839  .00000914  00000+0  72970-3 0  9992", "line2": "2 38199  73.9557  75.0190 0369323   3.0828 357.2436 13.64780719609154"}}, "geometry": {"type": "Point", "coordinates": [-52.17834485940035, -70.49645351339116]}}, {"type": "Feature", "properties": {"norad_id": 38208, "name": "COSMOS 2251 DEB", "group": "cosmos-2251-debris", "lat": 1.6673461693507532, "lon": 93.04001302223567, "alt_km": 623.8796096724946, "timestamp": "2025-12-05T20:43:02.451620+00:00", "meta": {"OBJECT_NAME": "COSMOS 2251 DEB", "OBJECT_ID": "1993-036BSY", "EPOCH": "2025-12-02T15:06:31.372992", "MEAN_MOTION": 14.83188605, "ECCENTRICITY": 0.00039653, "INCLINATION": 74.0061, "RA_OF_ASC_NODE": 98.9729, "ARG_OF_PERICENTER": 183.0621, "MEAN_ANOMALY": 198.654, "EPHEMERIS_TYPE": 0, "CLASSIFICATION_TYPE": "U", "NORAD_CAT_ID": 38208, "ELEMENT_SET_NO": 999, "REV_AT_EPOCH": 71009, "BSTAR": 0.003692922, "MEAN_MOTION_DOT": 0.0003026, "MEAN_MOTION_DDOT": 0}, "tle": {"line1": "1 38208U 93036BSY 25336.62952978  .00030260  00000+0  36929-2 0  9990", "line2": "2 38208  74.0061  98.9729 0003965 183.0621 198.6540 14.83188605710093"}}, "geometry": {"type": "Point", "coordinates": [93.04001302223567, 1.6673461693507532]}}, {"type": "Feature", "properties": {"norad_id": 38212, "name": "COSMOS 2251 DEB", "group": "cosmos-2251-debris", "lat": 70.78717724809601, "lon": -145.06096949446325, "alt_km": 595.06222468749, "timestamp": "2025-12-05T20:43:02.451630+00:00", "meta": {"OBJECT_NAME": "COSMOS 2251 DEB", "OBJECT_ID": "1993-036BTC", "EPOCH": "2025-11-30T02:08:11.826528", "MEAN_MOTION": 14.77531577, "ECCENTRICITY": 0.00935039, "INCLINATION": 74.0506, "RA_OF_ASC_NODE": 101.4043, "ARG_OF_PERICENTER": 172.1987, "MEAN_ANOMALY": 188.0671, "EPHEMERIS_TYPE": 0, "CLASSIFICATION_TYPE": "U", "NORAD_CAT_ID": 38212, "ELEMENT_SET_NO": 999, "REV_AT_EPOCH": 81123, "BSTAR": 0.000758158, "MEAN_MOTION_DOT": 5.788e-05, "MEAN_MOTION_DDOT": 0}, "tle": {"line1": "1 38212U 93036BTC 25334.08902577  .00005788  00000+0  75816-3 0  9999", "line2": "2 38212  74.0506 101.4043 0093503 172.1987 188.0671 14.77531577811231"}}, "geometry": {"type": "Point", "coordinates": [-145.06096949446325, 70.78717724809601]}}, {"type": "Feature", "properties": {"norad_id": 38220, "name": "COSMOS 2251 DEB", "group": "cosmos-2251-debris", "lat": -56.83525084619763, "lon": -71.85139848976131, "alt_km": 600.1485472318336, "timestamp": "2025-12-05T20:43:02.451640+00:00", "meta": {"OBJECT_NAME": "COSMOS 2251 DEB", "OBJECT_ID": "1993-036BTL", "EPOCH": "2025-12-02T14:23:55.852800", "MEAN_MOTION": 14.91852197, "ECCENTRICITY": 0.0003685, "INCLINATION": 74.0146, "RA_OF_ASC_NODE": 88.6858, "ARG_OF_PERICENTER": 99.6245, "MEAN_ANOMALY": 260.5354, "EPHEMERIS_TYPE": 0, "CLASSIFICATION_TYPE": "U", "NORAD_CAT_ID": 38220, "ELEMENT_SET_NO": 999, "REV_AT_EPOCH": 71219, "BSTAR": 0.0045511067, "MEAN_MOTION_DOT": 0.00046254, "MEAN_MOTION_DDOT": 0}, "tle": {"line1": "1 38220U 93036BTL 25336.59995200  .00046254  00000+0  45511-2 0  9992", "line2": "2 38220  74.0146  88.6858 0003685  99.6245 260.5354 14.91852197712191"}}, "geometry": {"type": "Point", "coordinates": [-71.85139848976131, -56.83525084619763]}}, {"type": "Feature", "properties": {"norad_id": 38479, "name": "COSMOS 2251 DEB", "group": "cosmos-2251-debris", "lat": -73.11794697235123, "lon": 126.08129382856416, "alt_km": 719.1960232013562, "timestamp": "2025-12-05T20:43:02.451650+00:00", "meta": {"OBJECT_NAME": "COSMOS 2251 DEB", "OBJECT_ID": "1993-036BTP", "EPOCH": "2025-11-15T12:46:06.719808", "MEAN_MOTION": 14.37875238, "ECCENTRICITY": 0.00846922, "INCLINATION": 74.0077, "RA_OF_ASC_NODE": 234.4912, "ARG_OF_PERICENTER": 348.2771, "MEAN_ANOMALY": 195.3627, "EPHEMERIS_TYPE": 0, "CLASSIFICATION_TYPE": "U", "NORAD_CAT_ID": 38479, "ELEMENT_SET_NO": 999, "REV_AT_EPOCH": 64296, "BSTAR": 0.00281077, "MEAN_MOTION_DOT": 8.824e-05, "MEAN_MOTION_DDOT": 0}, "tle": {"line1": "1 38479U 93036BTP 25319.53202222  .00008824  00000+0  28108-2 0  9992", "line2": "2 38479  74.0077 234.4912 0084692 348.2771 195.3627 14.37875238642962"}}, "geometry": {"type": "Point", "coordinates": [126.08129382856416, -73.11794697235123]}}, {"type": "Feature", "properties": {"norad_id": 38481, "name": "COSMOS 2251 DEB", "group": "cosmos-2251-debris", "lat": 8.345152947463133, "lon": -162.97754279522064, "alt_km": 1059.635950945457, "timestamp": "2025-12-05T20:43:02.451660+00:00", "meta": {"OBJECT_NAME": "COSMOS 2251 DEB", "OBJECT_ID": "1993-036BTR", "EPOCH": "2025-11-30T21:06:34.190496", "MEAN_MOTION": 13.94733975, "ECCENTRICITY": 0.02337783, "INCLINATION": 73.9329, "RA_OF_ASC_NODE": 28.0528, "ARG_OF_PERICENTER": 330.587, "MEAN_ANOMALY": 28.2266, "EPHEMERIS_TYPE": 0, "CLASSIFICATION_TYPE": "U", "NORAD_CAT_ID": 38481, "ELEMENT_SET_NO": 999, "REV_AT_EPOCH": 58895, "BSTAR": 0.0013592661, "MEAN_MOTION_DOT": 2.261e-05, "MEAN_MOTION_DDOT": 0}, "tle": {"line1": "1 38481U 93036BTR 25334.87956239  .00002261  00000+0  13593-2 0  9994", "line2": "2 38481  73.9329  28.0528 0233778 330.5870  28.2266 13.94733975588952"}}, "geometry": {"type": "Point", "coordinates": [-162.97754279522064, 8.345152947463133]}}, {"type": "Feature", "properties": {"norad_id": 38483, "name": "COSMOS 2251 DEB", "group": "cosmos-2251-debris", "lat": 23.389045972549876, "lon": -162.94588979924143, "alt_km": 721.866840318984, "timestamp": "2025-12-05T20:43:02.451670+00:00", "meta": {"OBJECT_NAME": "COSMOS 2251 DEB", "OBJECT_ID": "1993-036BTT", "EPOCH": "2025-11-30T10:35:51.419040", "MEAN_MOTION": 14.2869489, "ECCENTRICITY": 0.01113545, "INCLINATION": 74.2627, "RA_OF_ASC_NODE": 33.7569, "ARG_OF_PERICENTER": 143.1875, "MEAN_ANOMALY": 217.699, "EPHEMERIS_TYPE": 0, "CLASSIFICATION_TYPE": "U", "NORAD_CAT_ID": 38483, "ELEMENT_SET_NO": 999, "REV_AT_EPOCH": 63302, "BSTAR": 0.00092192588, "MEAN_MOTION_DOT": 2.455e-05, "MEAN_MOTION_DDOT": 0}, "tle": {"line1": "1 38483U 93036BTT 25334.44156735  .00002455  00000+0  92193-3 0  9991", "line2": "2 38483  74.2627  33.7569 0111354 143.1875 217.6990 14.28694890633022"}}, "geometry": {"type": "Point", "coordinates": [-162.94588979924143, 23.389045972549876]}}, {"type": "Feature", "properties": {"norad_id": 38486, "name": "COSMOS 2251 DEB", "group": "cosmos-2251-debris", "lat": 56.33707583972068, "lon": 12.703415153135627, "alt_km": 655.3024450323846, "timestamp": "2025-12-05T20:43:02.451680+00:00", "meta": {"OBJECT_NAME": "COSMOS 2251 DEB", "OBJECT_ID": "1993-036BTW", "EPOCH": "2025-12-04T10:45:43.773120", "MEAN_MOTION": 14.72848629, "ECCENTRICITY": 0.0029962, "INCLINATION": 73.9408, "RA_OF_ASC_NODE": 221.1021, "ARG_OF_PERICENTER": 6.1339, "MEAN_ANOMALY": 174.6266, "EPHEMERIS_TYPE": 0, "CLASSIFICATION_TYPE": "U", "NORAD_CAT_ID": 38486, "ELEMENT_SET_NO": 999, "REV_AT_EPOCH": 75312, "BSTAR": 0.0072104, "MEAN_MOTION_DOT": 0.00046774, "MEAN_MOTION_DDOT": 0}, "tle": {"line1": "1 38486U 93036BTW 25338.44842330  .00046774  00000+0  72104-2 0  9992", "line2": "2 38486  73.9408 221.1021 0029962   6.1339 174.6266 14.72848629753122"}}, "geometry": {"type": "Point", "coordinates": [12.703415153135627, 56.33707583972068]}}, {"type": "Feature", "properties": {"norad_id": 38487, "name": "COSMOS 2251 DEB", "group": "cosmos-2251-debris", "lat": -66.73477123642003, "lon": -89.8196054090775, "alt_km": 509.7058661322062, "timestamp": "2025-12-05T20:43:02.451691+00:00", "meta": {"OBJECT_NAME": "COSMOS 2251 DEB", "OBJECT_ID": "1993-036BTX", "EPOCH": "2025-12-03T21:41:13.895520", "MEAN_MOTION": 15.16226661, "ECCENTRICITY": 0.00230827, "INCLINATION": 73.974, "RA_OF_ASC_NODE": 52.3246, "ARG_OF_PERICENTER": 225.1872, "MEAN_ANOMALY": 134.7448, "EPHEMERIS_TYPE": 0, "CLASSIFICATION_TYPE": "U", "NORAD_CAT_ID": 38487, "ELEMENT_SET_NO": 999, "REV_AT_EPOCH": 66666, "BSTAR": 0.0042718994, "MEAN_MOTION_DOT": 0.0008408, "MEAN_MOTION_DDOT": 0}, "tle": {"line1": "1 38487U 93036BTX 25337.90363305  .00084080  00000+0  42719-2 0  9994", "line2": "2 38487  73.9740  52.3246 0023082 225.1872 134.7448 15.16226661666663"}}, "geometry": {"type": "Point", "coordinates": [-89.8196054090775, -66.73477123642003]}}]}